0 THORAD DELTA 1 DEB
1 08563U 74089DA  13280.26600029  .00000041  00000-0  52420-3 0  9383
2 08563 101.3562 170.4014 0086730 299.4436 184.2405 12.52489886775703
0 THORAD DELTA 1 DEB
1 08563U 74089DA  13282.96961934  .00000003  00000-0  28986-3 0  9396
2 08563 101.3563 172.9851 0086496 294.2123 134.7020 12.52490443776047
0 THORAD DELTA 1 DEB
1 08563U 74089DA  13285.67572594  .00000064  00000-0  67125-3 0  9404
2 08563 101.3570 175.5713 0086331 288.9360 096.4294 12.52491290776387
0 THORAD DELTA 1 DEB
1 08563U 74089DA  13288.18083856  .00000113  00000-0  97810-3 0  9411
2 08563 101.3565 177.9653 0086155 284.0313 231.9023 12.52491404776696
0 THORAD DELTA 1 DEB
1 08563U 74089DA  13290.62945830  .00000073  00000-0  73036-3 0  9422
2 08563 101.3558 180.3052 0086019 279.2360 112.6580 12.52492151777005
0 THORAD DELTA 1 DEB
1 08563U 74089DA  13293.21344050  .00000069  00000-0  70265-3 0  9434
2 08563 101.3553 182.7744 0085834 274.1751 243.7617 12.52492533777322
